CCSDS_OMM_VERS = 2.0
CREATION_DATE  = 
ORIGINATOR     = 

OBJECT_NAME    = UNKNOWN
OBJECT_ID      = 
CENTER_NAME    = EARTH
REF_FRAME      = TEME
TIME_SYSTEM    = UTC
MEAN_ELEMENT_THEORY = SGP/SGP4

EPOCH          = 2026-02-06T13:30:03.145824
MEAN_MOTION    = 9.34075208
ECCENTRICITY   = .1512198
INCLINATION    = 54.4973
RA_OF_ASC_NODE = 125.9123
ARG_OF_PERICENTER = 103.3370
MEAN_ANOMALY   = 273.9909

EPHEMERIS_TYPE = 0
CLASSIFICATION_TYPE = U
NORAD_CAT_ID   = 81779
ELEMENT_SET_NO = 999
REV_AT_EPOCH   = 48553
BSTAR          = -.43606E+0
MEAN_MOTION_DOT = -.736E-4
MEAN_MOTION_DDOT = 0

CCSDS_OMM_VERS = 2.0
CREATION_DATE  = 
ORIGINATOR     = 

OBJECT_NAME    = UNKNOWN
OBJECT_ID      = 
CENTER_NAME    = EARTH
REF_FRAME      = TEME
TIME_SYSTEM    = UTC
MEAN_ELEMENT_THEORY = SGP/SGP4

EPOCH          = 2026-02-05T02:53:51.484992
MEAN_MOTION    = 13.11228588
ECCENTRICITY   = .0895407
INCLINATION    = 65.8323
RA_OF_ASC_NODE = 333.6358
ARG_OF_PERICENTER = 258.4387
MEAN_ANOMALY   = 91.4916

EPHEMERIS_TYPE = 0
CLASSIFICATION_TYPE = U
NORAD_CAT_ID   = 81792
ELEMENT_SET_NO = 999
REV_AT_EPOCH   = 8716
BSTAR          = .82072E-3
MEAN_MOTION_DOT = .2293E-4
MEAN_MOTION_DDOT = 0

CCSDS_OMM_VERS = 2.0
CREATION_DATE  = 
ORIGINATOR     = 

OBJECT_NAME    = UNKNOWN
OBJECT_ID      = 
CENTER_NAME    = EARTH
REF_FRAME      = TEME
TIME_SYSTEM    = UTC
MEAN_ELEMENT_THEORY = SGP/SGP4

EPOCH          = 2026-02-07T05:42:02.460672
MEAN_MOTION    = 12.37814772
ECCENTRICITY   = .0239939
INCLINATION    = 103.8107
RA_OF_ASC_NODE = 322.1631
ARG_OF_PERICENTER = 138.2876
MEAN_ANOMALY   = 223.6748

EPHEMERIS_TYPE = 0
CLASSIFICATION_TYPE = U
NORAD_CAT_ID   = 81812
ELEMENT_SET_NO = 999
REV_AT_EPOCH   = 54755
BSTAR          = .41881E-1
MEAN_MOTION_DOT = .5954E-4
MEAN_MOTION_DDOT = 0

CCSDS_OMM_VERS = 2.0
CREATION_DATE  = 
ORIGINATOR     = 

OBJECT_NAME    = UNKNOWN
OBJECT_ID      = 
CENTER_NAME    = EARTH
REF_FRAME      = TEME
TIME_SYSTEM    = UTC
MEAN_ELEMENT_THEORY = SGP/SGP4

EPOCH          = 2026-02-04T20:43:43.496832
MEAN_MOTION    = 13.89631341
ECCENTRICITY   = .0175614
INCLINATION    = 66.2388
RA_OF_ASC_NODE = 161.1692
ARG_OF_PERICENTER = 216.1443
MEAN_ANOMALY   = 142.7660

EPHEMERIS_TYPE = 0
CLASSIFICATION_TYPE = U
NORAD_CAT_ID   = 81816
ELEMENT_SET_NO = 999
REV_AT_EPOCH   = 61686
BSTAR          = .19454E-2
MEAN_MOTION_DOT = .2621E-4
MEAN_MOTION_DDOT = 0

CCSDS_OMM_VERS = 2.0
CREATION_DATE  = 
ORIGINATOR     = 

OBJECT_NAME    = UNKNOWN
OBJECT_ID      = 
CENTER_NAME    = EARTH
REF_FRAME      = TEME
TIME_SYSTEM    = UTC
MEAN_ELEMENT_THEORY = SGP/SGP4

EPOCH          = 2026-02-06T05:22:56.539200
MEAN_MOTION    = 12.47786385
ECCENTRICITY   = .0030187
INCLINATION    = 102.1753
RA_OF_ASC_NODE = 140.1724
ARG_OF_PERICENTER = 11.5669
MEAN_ANOMALY   = 348.6087

EPHEMERIS_TYPE = 0
CLASSIFICATION_TYPE = U
NORAD_CAT_ID   = 81819
ELEMENT_SET_NO = 999
REV_AT_EPOCH   = 55493
BSTAR          = .75E-2
MEAN_MOTION_DOT = .1063E-4
MEAN_MOTION_DDOT = 0

CCSDS_OMM_VERS = 2.0
CREATION_DATE  = 
ORIGINATOR     = 

OBJECT_NAME    = UNKNOWN
OBJECT_ID      = 
CENTER_NAME    = EARTH
REF_FRAME      = TEME
TIME_SYSTEM    = UTC
MEAN_ELEMENT_THEORY = SGP/SGP4

EPOCH          = 2026-02-06T10:05:30.977088
MEAN_MOTION    = 14.36133945
ECCENTRICITY   = .0045195
INCLINATION    = 65.8430
RA_OF_ASC_NODE = 185.1966
ARG_OF_PERICENTER = 304.8204
MEAN_ANOMALY   = 54.8641

EPHEMERIS_TYPE = 0
CLASSIFICATION_TYPE = U
NORAD_CAT_ID   = 81824
ELEMENT_SET_NO = 999
REV_AT_EPOCH   = 63258
BSTAR          = .25889E-2
MEAN_MOTION_DOT = .756E-4
MEAN_MOTION_DDOT = 0

CCSDS_OMM_VERS = 2.0
CREATION_DATE  = 
ORIGINATOR     = 

OBJECT_NAME    = UNKNOWN
OBJECT_ID      = 
CENTER_NAME    = EARTH
REF_FRAME      = TEME
TIME_SYSTEM    = UTC
MEAN_ELEMENT_THEORY = SGP/SGP4

EPOCH          = 2026-02-06T08:06:50.316768
MEAN_MOTION    = 12.93750280
ECCENTRICITY   = .0025038
INCLINATION    = 90.2457
RA_OF_ASC_NODE = 4.1228
ARG_OF_PERICENTER = 237.7419
MEAN_ANOMALY   = 122.1273

EPHEMERIS_TYPE = 0
CLASSIFICATION_TYPE = U
NORAD_CAT_ID   = 81833
ELEMENT_SET_NO = 999
REV_AT_EPOCH   = 45970
BSTAR          = .8918E-3
MEAN_MOTION_DOT = .253E-5
MEAN_MOTION_DDOT = 0

CCSDS_OMM_VERS = 2.0
CREATION_DATE  = 
ORIGINATOR     = 

OBJECT_NAME    = UNKNOWN
OBJECT_ID      = 
CENTER_NAME    = EARTH
REF_FRAME      = TEME
TIME_SYSTEM    = UTC
MEAN_ELEMENT_THEORY = SGP/SGP4

EPOCH          = 2026-01-26T16:46:09.078816
MEAN_MOTION    = 14.57662167
ECCENTRICITY   = .0041952
INCLINATION    = 67.7595
RA_OF_ASC_NODE = 148.7226
ARG_OF_PERICENTER = 323.4616
MEAN_ANOMALY   = 103.9601

EPHEMERIS_TYPE = 0
CLASSIFICATION_TYPE = U
NORAD_CAT_ID   = 81838
ELEMENT_SET_NO = 999
REV_AT_EPOCH   = 63988
BSTAR          = .23584E-2
MEAN_MOTION_DOT = .10833E-3
MEAN_MOTION_DDOT = 0

CCSDS_OMM_VERS = 2.0
CREATION_DATE  = 
ORIGINATOR     = 

OBJECT_NAME    = UNKNOWN
OBJECT_ID      = 
CENTER_NAME    = EARTH
REF_FRAME      = TEME
TIME_SYSTEM    = UTC
MEAN_ELEMENT_THEORY = SGP/SGP4

EPOCH          = 2026-02-05T07:02:47.975712
MEAN_MOTION    = 14.33443038
ECCENTRICITY   = .0061522
INCLINATION    = 82.9066
RA_OF_ASC_NODE = 237.8122
ARG_OF_PERICENTER = 345.9227
MEAN_ANOMALY   = 14.0243

EPHEMERIS_TYPE = 0
CLASSIFICATION_TYPE = U
NORAD_CAT_ID   = 81844
ELEMENT_SET_NO = 999
REV_AT_EPOCH   = 63070
BSTAR          = .26617E-2
MEAN_MOTION_DOT = .7523E-4
MEAN_MOTION_DDOT = 0

CCSDS_OMM_VERS = 2.0
CREATION_DATE  = 
ORIGINATOR     = 

OBJECT_NAME    = UNKNOWN
OBJECT_ID      = 
CENTER_NAME    = EARTH
REF_FRAME      = TEME
TIME_SYSTEM    = UTC
MEAN_ELEMENT_THEORY = SGP/SGP4

EPOCH          = 2026-02-06T00:02:40.576992
MEAN_MOTION    = 14.85536147
ECCENTRICITY   = .0088238
INCLINATION    = 97.6761
RA_OF_ASC_NODE = 227.0352
ARG_OF_PERICENTER = 122.7098
MEAN_ANOMALY   = 28.4304

EPHEMERIS_TYPE = 0
CLASSIFICATION_TYPE = U
NORAD_CAT_ID   = 81845
ELEMENT_SET_NO = 999
REV_AT_EPOCH   = 65772
BSTAR          = .47123E-3
MEAN_MOTION_DOT = .4313E-4
MEAN_MOTION_DDOT = 0

CCSDS_OMM_VERS = 2.0
CREATION_DATE  = 
ORIGINATOR     = 

OBJECT_NAME    = UNKNOWN
OBJECT_ID      = 
CENTER_NAME    = EARTH
REF_FRAME      = TEME
TIME_SYSTEM    = UTC
MEAN_ELEMENT_THEORY = SGP/SGP4

EPOCH          = 2026-02-02T03:08:14.204544
MEAN_MOTION    = 13.32666652
ECCENTRICITY   = .0766542
INCLINATION    = 65.6733
RA_OF_ASC_NODE = 306.7363
ARG_OF_PERICENTER = 350.9348
MEAN_ANOMALY   = 7.8479

EPHEMERIS_TYPE = 0
CLASSIFICATION_TYPE = U
NORAD_CAT_ID   = 81864
ELEMENT_SET_NO = 999
REV_AT_EPOCH   = 55768
BSTAR          = .94023E-3
MEAN_MOTION_DOT = .244E-4
MEAN_MOTION_DDOT = 0

CCSDS_OMM_VERS = 2.0
CREATION_DATE  = 
ORIGINATOR     = 

OBJECT_NAME    = UNKNOWN
OBJECT_ID      = 
CENTER_NAME    = EARTH
REF_FRAME      = TEME
TIME_SYSTEM    = UTC
MEAN_ELEMENT_THEORY = SGP/SGP4

EPOCH          = 2026-02-07T07:22:02.863776
MEAN_MOTION    = 13.88206080
ECCENTRICITY   = .0060262
INCLINATION    = 82.8074
RA_OF_ASC_NODE = 345.0065
ARG_OF_PERICENTER = 202.9328
MEAN_ANOMALY   = 309.5911

EPHEMERIS_TYPE = 0
CLASSIFICATION_TYPE = U
NORAD_CAT_ID   = 81865
ELEMENT_SET_NO = 999
REV_AT_EPOCH   = 61639
BSTAR          = .11969E-2
MEAN_MOTION_DOT = .1465E-4
MEAN_MOTION_DDOT = 0

