UNKNOWN                 
1 81779U          26037.56253641 -.00007360  00000+0 -43606+0 0  9997
2 81779  54.4973 125.9123 1512198 103.3370 273.9909  9.34075208485535
UNKNOWN                 
1 81792U          26036.12073478  .00002293  00000+0  82072-3 0  9993
2 81792  65.8323 333.6358 0895407 258.4387  91.4916 13.11228588 87168
UNKNOWN                 
1 81812U          26038.23752848  .00005954  00000+0  41881-1 0  9993
2 81812 103.8107 322.1631 0239939 138.2876 223.6748 12.37814772547550
UNKNOWN                 
1 81816U          26035.86369788  .00002621  00000+0  19454-2 0  9990
2 81816  66.2388 161.1692 0175614 216.1443 142.7660 13.89631341616862
UNKNOWN                 
1 81819U          26037.22426550  .00001063  00000+0  75000-2 0  9994
2 81819 102.1753 140.1724 0030187  11.5669 348.6087 12.47786385554937
UNKNOWN                 
1 81824U          26037.42049742  .00007560  00000+0  25889-2 0  9994
2 81824  65.8430 185.1966 0045195 304.8204  54.8641 14.36133945632583
UNKNOWN                 
1 81833U          26037.33808237  .00000253  00000+0  89180-3 0  9993
2 81833  90.2457   4.1228 0025038 237.7419 122.1273 12.93750280459700
UNKNOWN                 
1 81838U          26026.69871619  .00010833  00000+0  23584-2 0  9999
2 81838  67.7595 148.7226 0041952 323.4616 103.9601 14.57662167639884
UNKNOWN                 
1 81844U          26036.29361083  .00007523  00000+0  26617-2 0  9994
2 81844  82.9066 237.8122 0061522 345.9227  14.0243 14.33443038630704
UNKNOWN                 
1 81845U          26037.00185853  .00004313  00000+0  47123-3 0  9994
2 81845  97.6761 227.0352 0088238 122.7098  28.4304 14.85536147657725
UNKNOWN                 
1 81864U          26033.13071996  .00002440  00000+0  94023-3 0  9997
2 81864  65.6733 306.7363 0766542 350.9348   7.8479 13.32666652557685
UNKNOWN                 
1 81865U          26038.30697759  .00001465  00000+0  11969-2 0  9996
2 81865  82.8074 345.0065 0060262 202.9328 309.5911 13.88206080616393
